{"type":"FeatureCollection","features":[{"type":"Feature","properties":{"buffer_km":2.0,"note":"nearby band: within buffer_km of the municipality"},"geometry":{"type":"Polygon","coordinates":[[[17.71822,44.37581],[17.71576,44.37834],[17.71383,44.38122],[17.71257,44.38415],[17.71202,44.3872],[17.71213,44.38984],[17.71294,44.39287],[17.71446,44.39575],[17.71664,44.39841],[17.71942,44.40076],[17.72272,44.40273],[17.73082,44.40624],[17.73869,44.41029],[17.74508,44.41282],[17.75731,44.42128],[17.76119,44.42366],[17.76612,44.42718],[17.77331,44.43116],[17.77546,44.43207],[17.77994,44.43366],[17.78342,44.43467],[17.79219,44.43622],[17.79899,44.43724],[17.80457,44.4386],[17.80861,44.44086],[17.81293,44.4428],[17.81562,44.44381],[17.81845,44.44458],[17.82387,44.44542],[17.83118,44.44591],[17.84531,44.44914],[17.85712,44.45088],[17.86177,44.45173],[17.86577,44.45264],[17.87014,44.45388],[17.87752,44.45639],[17.88348,44.45775],[17.88622,44.45868],[17.88913,44.45937],[17.89153,44.45973],[17.89458,44.45995],[17.89765,44.4599],[17.90008,44.45967],[17.90364,44.45901],[17.90702,44.45798],[17.90966,44.45686],[17.91254,44.45522],[17.91506,44.4533],[17.91716,44.45113],[17.9188,44.44878],[17.91993,44.44627],[17.92048,44.44411],[17.92065,44.44155],[17.92128,44.43877],[17.92141,44.43698],[17.92128,44.4352],[17.92064,44.43256],[17.9198,44.43031],[17.91853,44.42762],[17.91914,44.42571],[17.91948,44.42352],[17.91944,44.42132],[17.91914,44.41957],[17.9186,44.41784],[17.91783,44.41617],[17.91677,44.41444],[17.91563,44.41299],[17.91766,44.4092],[17.91962,44.40341],[17.92259,44.40208],[17.92457,44.401],[17.92683,44.39945],[17.92858,44.39792],[17.93042,44.39727],[17.93465,44.39693],[17.93815,44.39627],[17.94298,44.39484],[17.94949,44.39271],[17.95157,44.39185],[17.95352,44.39086],[17.9576,44.38812],[17.96237,44.38627],[17.97521,44.38069],[17.97729,44.37964],[17.97921,44.37844],[17.98095,44.3771],[17.98389,44.37444],[17.98555,44.37258],[17.98687,44.37058],[17.98783,44.36848],[17.98844,44.36631],[17.98865,44.36444],[17.99205,44.36459],[17.99569,44.36437],[17.99808,44.36401],[18.0033,44.36295],[18.00655,44.36257],[18.0095,44.36197],[18.01178,44.36131],[18.01395,44.36049],[18.016,44.35952],[18.01791,44.35841],[18.01966,44.35718],[18.02123,44.35582],[18.02261,44.35437],[18.02384,44.35273],[18.03646,44.35237],[18.04014,44.352],[18.04254,44.35153],[18.04486,44.3509],[18.05225,44.34828],[18.05996,44.34488],[18.06516,44.3419],[18.06688,44.34071],[18.06843,44.33941],[18.06981,44.33801],[18.07127,44.33623],[18.07381,44.33589],[18.07673,44.33525],[18.07952,44.33436],[18.08162,44.33348],[18.0836,44.33245],[18.08586,44.33098],[18.08786,44.32932],[18.08924,44.32788],[18.09043,44.32635],[18.0916,44.32433],[18.09243,44.32223],[18.09306,44.31966],[18.09503,44.3163],[18.09581,44.31452],[18.09712,44.30991],[18.09804,44.30533],[18.10017,44.29721],[18.10053,44.29459],[18.10324,44.29285],[18.10711,44.29167],[18.11076,44.28998],[18.11352,44.28819],[18.11588,44.28613],[18.11806,44.28344],[18.12088,44.2785],[18.12235,44.27497],[18.12273,44.27323],[18.12288,44.27148],[18.12279,44.26972],[18.12233,44.26755],[18.11904,44.25766],[18.11606,44.25089],[18.1136,44.24624],[18.11149,44.24171],[18.11148,44.23967],[18.11186,44.23736],[18.11238,44.23184],[18.11219,44.22961],[18.11162,44.22741],[18.11019,44.22445],[18.10827,44.22186],[18.10643,44.21827],[18.10474,44.21449],[18.09951,44.20621],[18.10005,44.20208],[18.10038,44.19801],[18.10004,44.19428],[18.10012,44.19113],[18.09978,44.18894],[18.09888,44.18639],[18.09747,44.18395],[18.09559,44.18169],[18.09362,44.17993],[18.09397,44.17849],[18.09418,44.17674],[18.09414,44.17497],[18.09386,44.17322],[18.09335,44.1715],[18.0926,44.16983],[18.09163,44.16821],[18.09054,44.16677],[18.0916,44.16469],[18.09219,44.16295],[18.09303,44.15721],[18.09295,44.15414],[18.09258,44.15241],[18.09197,44.1507],[18.09089,44.14865],[18.08948,44.14671],[18.08775,44.1449],[18.08528,44.14296],[18.08245,44.14129],[18.07868,44.13961],[18.07597,44.1386],[18.07369,44.13797],[18.07075,44.13741],[18.06752,44.13707],[18.062,44.1359],[18.05775,44.13548],[18.05468,44.1355],[18.05165,44.13579],[18.04638,44.13663],[18.03975,44.13794],[18.03512,44.13667],[18.03274,44.13616],[18.02968,44.13576],[18.02483,44.13551],[18.02124,44.13454],[18.01705,44.13395],[18.014,44.13385],[18.01156,44.13396],[18.00856,44.13433],[18.00552,44.13501],[18.00386,44.13496],[18.0029,44.13473],[17.9983,44.13098],[17.99504,44.12902],[17.99136,44.12748],[17.98911,44.12682],[17.9865,44.12623],[17.9853,44.12573],[17.9881,44.12329],[17.9894,44.12178],[17.99048,44.12018],[17.99134,44.11852],[17.99205,44.11666],[17.99272,44.114],[17.99371,44.11124],[17.99408,44.1086],[17.99415,44.10613],[17.994,44.10436],[17.99331,44.10175],[17.99186,44.09885],[17.99274,44.09708],[17.99343,44.09494],[17.99375,44.09276],[17.99374,44.091],[17.99349,44.08925],[17.99285,44.0871],[17.99186,44.08503],[17.99052,44.08306],[17.98885,44.08122],[17.98689,44.07954],[17.98466,44.07804],[17.98219,44.07675],[17.98007,44.07588],[17.97727,44.07502],[17.97091,44.07351],[17.96784,44.07304],[17.96472,44.07285],[17.96222,44.07291],[17.95793,44.07328],[17.95499,44.0738],[17.95215,44.07457],[17.94946,44.07558],[17.94696,44.07682],[17.94513,44.07797],[17.94306,44.07957],[17.94129,44.08135],[17.94009,44.08287],[17.93862,44.08521],[17.9351,44.0857],[17.93172,44.08653],[17.92903,44.08686],[17.9261,44.08748],[17.92221,44.08878],[17.91871,44.09052],[17.91464,44.09087],[17.91052,44.09175],[17.90668,44.09313],[17.90322,44.09496],[17.90024,44.09719],[17.89814,44.09937],[17.89629,44.10217],[17.89525,44.10471],[17.89485,44.10646],[17.89469,44.10823],[17.89478,44.11],[17.89515,44.11194],[17.8952,44.11402],[17.89483,44.11669],[17.89499,44.11953],[17.89366,44.12142],[17.89262,44.12348],[17.89194,44.12561],[17.89161,44.12778],[17.89172,44.13041],[17.89208,44.13214],[17.89268,44.13386],[17.893,44.13665],[17.89132,44.13823],[17.89003,44.13974],[17.88894,44.14133],[17.88799,44.14319],[17.88455,44.14323],[17.86991,44.14431],[17.86632,44.14485],[17.86288,44.14577],[17.8603,44.14672],[17.85773,44.14796],[17.85531,44.14941],[17.85344,44.15078],[17.85113,44.15176],[17.84868,44.15308],[17.84582,44.15516],[17.84382,44.15625],[17.84199,44.15743],[17.83883,44.15812],[17.8355,44.15922],[17.83342,44.16015],[17.83073,44.16162],[17.82741,44.16287],[17.8248,44.16412],[17.82198,44.16591],[17.81957,44.168],[17.81597,44.17212],[17.81421,44.17475],[17.81298,44.17726],[17.8123,44.17964],[17.81205,44.18261],[17.81231,44.18503],[17.80834,44.1862],[17.80463,44.18787],[17.80271,44.18903],[17.80071,44.19054],[17.79855,44.19172],[17.79457,44.19421],[17.79262,44.19564],[17.7888,44.19697],[17.7853,44.19877],[17.78269,44.20063],[17.78037,44.20285],[17.7784,44.20553],[17.77668,44.2089],[17.77575,44.21242],[17.77549,44.21517],[17.77569,44.21741],[17.77637,44.21989],[17.77657,44.22285],[17.77732,44.22542],[17.77811,44.22708],[17.77911,44.22868],[17.78033,44.2302],[17.78178,44.23165],[17.7806,44.23364],[17.77989,44.23533],[17.77933,44.23751],[17.77915,44.23927],[17.77927,44.24148],[17.77963,44.24322],[17.78024,44.24494],[17.78116,44.24675],[17.78011,44.25034],[17.77978,44.25287],[17.77981,44.25883],[17.78082,44.26656],[17.78179,44.26919],[17.78461,44.27445],[17.78573,44.27599],[17.79115,44.28255],[17.79517,44.28622],[17.79733,44.28784],[17.80079,44.28976],[17.80421,44.29108],[17.79912,44.29531],[17.79776,44.2968],[17.79636,44.29878],[17.79421,44.3006],[17.79222,44.30284],[17.79094,44.30485],[17.79016,44.30653],[17.78796,44.31283],[17.78746,44.31512],[17.78573,44.31654],[17.784,44.31833],[17.7798,44.32442],[17.77559,44.32603],[17.77254,44.32766],[17.76358,44.33355],[17.76156,44.3352],[17.75984,44.33701],[17.75819,44.33937],[17.75704,44.34187],[17.75642,44.34447],[17.7563,44.34746],[17.75502,44.34915],[17.75389,44.35116],[17.74647,44.35401],[17.74311,44.35578],[17.73678,44.35835],[17.73339,44.36028],[17.7305,44.3626],[17.72912,44.36407],[17.72813,44.36536],[17.72586,44.36751],[17.72326,44.37058],[17.72172,44.37299],[17.72007,44.37417],[17.71822,44.37581]],[[17.73709,44.38798],[17.73747,44.38736],[17.73814,44.38703],[17.73866,44.38626],[17.73892,44.38612],[17.73995,44.38588],[17.74041,44.38565],[17.74061,44.38541],[17.74149,44.38532],[17.74202,44.38549],[17.74239,44.38541],[17.74396,44.38425],[17.74488,44.38302],[17.74492,44.38265],[17.74541,44.382],[17.74543,44.38162],[17.74503,44.38068],[17.74528,44.37974],[17.74522,44.37928],[17.74651,44.378],[17.74672,44.37752],[17.74747,44.3771],[17.74815,44.37622],[17.74923,44.37581],[17.74978,44.37447],[17.75043,44.37395],[17.7506,44.37337],[17.75835,44.37026],[17.75959,44.36935],[17.76,44.36921],[17.76067,44.36932],[17.76118,44.36922],[17.76247,44.36876],[17.76255,44.36857],[17.76332,44.36827],[17.76338,44.36797],[17.76387,44.36767],[17.76537,44.36746],[17.76619,44.36765],[17.7667,44.36814],[17.76662,44.36848],[17.76607,44.36903],[17.76522,44.36936],[17.76524,44.36948],[17.76602,44.36987],[17.76589,44.37022],[17.76507,44.37101],[17.76531,44.37118],[17.76592,44.37117],[17.76616,44.37137],[17.76699,44.3713],[17.76866,44.37166],[17.76963,44.37055],[17.77125,44.3701],[17.77315,44.3692],[17.77386,44.3684],[17.77504,44.36743],[17.7757,44.36639],[17.77684,44.36509],[17.77745,44.36397],[17.77892,44.36322],[17.77925,44.36278],[17.77934,44.36212],[17.77893,44.36041],[17.77819,44.35938],[17.77768,44.35686],[17.78201,44.35393],[17.78137,44.34985],[17.78137,44.34623],[17.78898,44.34125],[17.79531,44.33898],[17.79848,44.33807],[17.80544,44.32765],[17.80861,44.32539],[17.81431,44.32222],[17.81875,44.3195],[17.81241,44.31768],[17.81241,44.31678],[17.81431,44.31134],[17.81748,44.30907],[17.81938,44.3059],[17.82825,44.29865],[17.83331,44.29547],[17.83712,44.29094],[17.83965,44.29003],[17.84218,44.28641],[17.84155,44.28368],[17.83775,44.2796],[17.83458,44.27734],[17.82698,44.27598],[17.81811,44.27552],[17.81431,44.27461],[17.81178,44.27235],[17.80734,44.2669],[17.80544,44.26328],[17.80481,44.25783],[17.80481,44.25329],[17.80671,44.24694],[17.80608,44.24059],[17.80418,44.23968],[17.80798,44.23424],[17.81178,44.2297],[17.81241,44.22652],[17.80481,44.22107],[17.80138,44.22046],[17.80157,44.2196],[17.80208,44.21917],[17.80205,44.2183],[17.80174,44.21697],[17.80133,44.21605],[17.80051,44.21518],[17.80051,44.21497],[17.80089,44.21426],[17.80081,44.21364],[17.8013,44.21309],[17.80142,44.21257],[17.80155,44.21245],[17.80316,44.21242],[17.80339,44.2125],[17.80364,44.21264],[17.80423,44.21367],[17.80458,44.21371],[17.80597,44.21268],[17.80654,44.21201],[17.80728,44.21162],[17.80776,44.21078],[17.80866,44.21051],[17.80926,44.21067],[17.80974,44.21054],[17.80995,44.21011],[17.80985,44.20926],[17.80999,44.2089],[17.81139,44.20753],[17.81323,44.20683],[17.8143,44.20572],[17.81473,44.20544],[17.81627,44.20488],[17.81697,44.20442],[17.81803,44.20413],[17.81973,44.20222],[17.82014,44.2022],[17.82125,44.20278],[17.82186,44.20286],[17.82247,44.20315],[17.82306,44.20309],[17.82321,44.20332],[17.82387,44.20339],[17.82607,44.2021],[17.82672,44.20203],[17.82707,44.20218],[17.8275,44.20217],[17.82931,44.20163],[17.83106,44.2023],[17.83228,44.20242],[17.83412,44.20238],[17.83421,44.20164],[17.83506,44.20118],[17.83541,44.20058],[17.83475,44.19754],[17.83493,44.19684],[17.83618,44.19503],[17.83755,44.19346],[17.83809,44.19227],[17.83788,44.19102],[17.83816,44.1895],[17.83862,44.18892],[17.83851,44.18856],[17.83981,44.18739],[17.83985,44.18696],[17.83827,44.18565],[17.83808,44.18368],[17.83777,44.18328],[17.83733,44.18299],[17.83706,44.18247],[17.83713,44.18194],[17.8376,44.18162],[17.83773,44.18098],[17.83923,44.17963],[17.83993,44.17844],[17.84095,44.17804],[17.842,44.17782],[17.84382,44.17722],[17.84435,44.17709],[17.84472,44.17712],[17.84521,44.17629],[17.8466,44.17573],[17.84758,44.17498],[17.84817,44.17487],[17.84925,44.17492],[17.85111,44.17529],[17.85206,44.17573],[17.85282,44.17577],[17.85476,44.17542],[17.85518,44.17525],[17.85686,44.1743],[17.85766,44.17339],[17.85878,44.17114],[17.85963,44.17019],[17.86287,44.16865],[17.86492,44.16676],[17.86753,44.16577],[17.86898,44.16502],[17.87026,44.1646],[17.87111,44.16415],[17.87194,44.16341],[17.87218,44.16269],[17.87324,44.16215],[17.87363,44.16229],[17.8867,44.16116],[17.89028,44.16309],[17.89341,44.16437],[17.89565,44.16598],[17.90103,44.16373],[17.90327,44.16148],[17.9064,44.16019],[17.91354,44.15285],[17.91347,44.14995],[17.91189,44.14846],[17.91649,44.14434],[17.91884,44.14091],[17.92206,44.13997],[17.92172,44.13821],[17.92257,44.13648],[17.92208,44.13498],[17.92127,44.13515],[17.92015,44.13502],[17.91929,44.13441],[17.91767,44.13378],[17.91792,44.13247],[17.91775,44.13049],[17.91657,44.12859],[17.92034,44.12604],[17.92288,44.1254],[17.92415,44.12476],[17.92228,44.12204],[17.92071,44.12122],[17.92016,44.12073],[17.9198,44.11716],[17.92062,44.1152],[17.9214,44.11506],[17.92011,44.11269],[17.92021,44.1106],[17.92005,44.10956],[17.91967,44.1085],[17.92268,44.10881],[17.92568,44.1089],[17.93132,44.10816],[17.93268,44.10767],[17.93307,44.10694],[17.93422,44.10634],[17.93542,44.10629],[17.93658,44.10595],[17.93605,44.10541],[17.93459,44.10441],[17.9362,44.10437],[17.93718,44.1048],[17.93744,44.1046],[17.9399,44.10373],[17.94077,44.10357],[17.94149,44.10309],[17.94272,44.10309],[17.94523,44.10344],[17.94601,44.10337],[17.9482,44.10287],[17.9534,44.10321],[17.95719,44.10276],[17.95812,44.10106],[17.9581,44.09996],[17.95843,44.09902],[17.95877,44.09681],[17.95978,44.09583],[17.96088,44.09402],[17.96139,44.09349],[17.96168,44.09209],[17.96236,44.09099],[17.96422,44.09084],[17.96881,44.09195],[17.96654,44.09312],[17.96584,44.09283],[17.96476,44.09304],[17.96337,44.0937],[17.96231,44.09497],[17.96165,44.097],[17.96211,44.09871],[17.9622,44.10041],[17.96265,44.10195],[17.96205,44.10337],[17.96223,44.10425],[17.9626,44.10491],[17.96324,44.10528],[17.96674,44.10656],[17.96786,44.10675],[17.96918,44.10637],[17.96911,44.10661],[17.96824,44.10712],[17.96912,44.10812],[17.96893,44.10853],[17.96836,44.10877],[17.96747,44.10887],[17.96684,44.10935],[17.96684,44.10988],[17.96778,44.1111],[17.96789,44.11208],[17.96752,44.11309],[17.96306,44.11565],[17.96152,44.11605],[17.95878,44.11718],[17.9572,44.11806],[17.95645,44.11886],[17.95598,44.11974],[17.95592,44.12309],[17.9555,44.12356],[17.95659,44.12632],[17.95641,44.12701],[17.95871,44.12812],[17.95854,44.12887],[17.95864,44.12941],[17.96011,44.13198],[17.95985,44.13268],[17.9601,44.13392],[17.95981,44.13523],[17.96056,44.13629],[17.96091,44.13726],[17.96033,44.13773],[17.97359,44.14163],[17.97363,44.14207],[17.97419,44.14233],[17.97442,44.14293],[17.97484,44.14289],[17.97834,44.14325],[17.98073,44.14377],[17.98324,44.14584],[17.98698,44.14989],[18.00086,44.1532],[18.00115,44.15451],[18.00231,44.15436],[18.00374,44.15295],[18.00776,44.1543],[18.01435,44.15184],[18.0165,44.15268],[18.01863,44.15309],[18.02162,44.15339],[18.02677,44.15364],[18.03076,44.15473],[18.0342,44.15652],[18.03853,44.15827],[18.04167,44.15762],[18.04435,44.1557],[18.05242,44.15409],[18.05645,44.15345],[18.06227,44.15473],[18.06585,44.15505],[18.06809,44.15602],[18.06765,44.15955],[18.06496,44.16148],[18.06272,44.16276],[18.06182,44.16534],[18.06138,44.16763],[18.06073,44.16915],[18.05916,44.17011],[18.05719,44.17194],[18.05738,44.17251],[18.06017,44.17308],[18.06107,44.17311],[18.06539,44.17377],[18.06797,44.17509],[18.06919,44.17613],[18.06683,44.18268],[18.06857,44.18694],[18.07201,44.1898],[18.07515,44.19206],[18.07498,44.19469],[18.07538,44.1978],[18.07436,44.20612],[18.07436,44.20998],[18.08153,44.22121],[18.08268,44.22395],[18.08556,44.22956],[18.08735,44.2318],[18.0869,44.23598],[18.08646,44.23854],[18.08646,44.24464],[18.09004,44.25234],[18.09228,44.25651],[18.09497,44.26261],[18.09784,44.27129],[18.09541,44.27576],[18.09227,44.27655],[18.08743,44.27823],[18.08523,44.28035],[18.08306,44.2813],[18.07925,44.28416],[18.07669,44.28765],[18.07586,44.29022],[18.07545,44.29429],[18.07332,44.30237],[18.07242,44.30686],[18.07153,44.31007],[18.06884,44.31455],[18.06794,44.3184],[18.05943,44.31776],[18.05451,44.31936],[18.05361,44.32257],[18.05182,44.32449],[18.04868,44.32833],[18.046,44.32993],[18.04107,44.33218],[18.0348,44.33442],[18.02405,44.33474],[18.01957,44.33314],[18.01643,44.33154],[18.01285,44.32993],[18.01016,44.33314],[18.00568,44.33378],[18.003,44.33474],[17.99897,44.33955],[17.99941,44.34179],[18.00121,44.34499],[17.99807,44.34531],[17.9918,44.34659],[17.98866,44.34563],[17.98463,44.34339],[17.98239,44.34339],[17.97612,44.34691],[17.97433,44.34916],[17.96941,44.34948],[17.96269,44.35204],[17.96179,44.36229],[17.96358,44.36389],[17.96179,44.36549],[17.94925,44.37093],[17.94253,44.37349],[17.93805,44.37669],[17.92999,44.37925],[17.92327,44.37957],[17.91834,44.3815],[17.91431,44.3815],[17.90894,44.38278],[17.90909,44.38632],[17.90839,44.38724],[17.90666,44.38756],[17.90584,44.38759],[17.90564,44.38847],[17.90464,44.38835],[17.90311,44.38764],[17.89939,44.38837],[17.89749,44.38829],[17.89693,44.38844],[17.89643,44.38835],[17.89573,44.38895],[17.89561,44.38947],[17.89504,44.39029],[17.89458,44.39009],[17.8942,44.3903],[17.89398,44.39069],[17.89433,44.39097],[17.89363,44.39158],[17.89332,44.39228],[17.89342,44.39262],[17.89392,44.39277],[17.89492,44.40023],[17.89471,44.40041],[17.8941,44.40191],[17.89347,44.40249],[17.89366,44.40395],[17.89209,44.40559],[17.89226,44.40622],[17.89217,44.40656],[17.89142,44.40687],[17.89094,44.40765],[17.89111,44.40837],[17.89092,44.40935],[17.89071,44.40955],[17.88945,44.4101],[17.88916,44.41041],[17.88759,44.4134],[17.88718,44.41366],[17.8866,44.41367],[17.88651,44.41395],[17.88666,44.4141],[17.88633,44.4145],[17.88641,44.41478],[17.88713,44.41502],[17.88694,44.41548],[17.88748,44.41562],[17.88764,44.41581],[17.88786,44.41633],[17.88791,44.41685],[17.88775,44.41728],[17.8879,44.41754],[17.88866,44.41782],[17.88968,44.41709],[17.89135,44.41795],[17.89114,44.42004],[17.89123,44.42031],[17.89187,44.42076],[17.89223,44.4214],[17.8944,44.42263],[17.89436,44.42276],[17.89327,44.42296],[17.89207,44.42309],[17.89141,44.42304],[17.89058,44.42334],[17.89046,44.42355],[17.89071,44.42407],[17.89189,44.42438],[17.89174,44.42471],[17.89185,44.42508],[17.89212,44.42533],[17.89204,44.42599],[17.89225,44.42639],[17.89153,44.42774],[17.89151,44.4281],[17.89175,44.42848],[17.89191,44.42933],[17.89344,44.43092],[17.89421,44.4321],[17.89443,44.43268],[17.89443,44.4338],[17.89576,44.4355],[17.89629,44.43698],[17.89592,44.43836],[17.89557,44.43878],[17.89528,44.43954],[17.89554,44.44197],[17.89356,44.44114],[17.88672,44.43965],[17.88027,44.4374],[17.87421,44.43568],[17.86869,44.43442],[17.86265,44.43332],[17.85173,44.43175],[17.83616,44.42816],[17.82781,44.42765],[17.82593,44.4274],[17.82322,44.42622],[17.82254,44.42573],[17.82057,44.42473],[17.81786,44.42297],[17.81026,44.4209],[17.80526,44.41979],[17.79801,44.41871],[17.79105,44.41753],[17.78713,44.41614],[17.78298,44.41384],[17.77824,44.41043],[17.77436,44.40807],[17.7601,44.39819],[17.75184,44.39497],[17.74468,44.39121],[17.73709,44.38798]]]}}]}